{
  "norad_id": 61692,
  "name": "STARLINK-11315 [DTC]",
  "history": [
    {
      "epoch": "2026-04-13T00:26:33.823392Z",
      "apogee_km": 360.4704804781568,
      "perigee_km": 359.02803378822955,
      "latitude_deg": -1.3074320116301988e-05,
      "longitude_deg": 9.298307977576844,
      "height_km": 360.77206947400003,
      "semi_major_axis_km": 6737.886257133193,
      "eccentricity": 0.00010704,
      "inclination_deg": 53.1611,
      "raan_deg": 217.1545,
      "arg_perigee_deg": 98.691,
      "mean_anomaly_deg": 261.4229,
      "mean_motion_rev_day": 15.69702135
    },
    {
      "epoch": "2026-04-14T07:00:13.716288Z",
      "apogee_km": 360.2763012837868,
      "perigee_km": 359.17802942483377,
      "latitude_deg": 3.511667740779683e-05,
      "longitude_deg": -96.6493745168206,
      "height_km": 360.43776155875224,
      "semi_major_axis_km": 6737.86416535431,
      "eccentricity": 8.15e-05,
      "inclination_deg": 53.1608,
      "raan_deg": 210.8781,
      "arg_perigee_deg": 68.237,
      "mean_anomaly_deg": 291.8735,
      "mean_motion_rev_day": 15.69709855
    },
    {
      "epoch": "2026-04-15T13:33:54.904320Z",
      "apogee_km": 360.4442593718304,
      "perigee_km": 359.07377132230886,
      "latitude_deg": -7.734993461827361e-06,
      "longitude_deg": 157.3973651716927,
      "height_km": 360.33440329367005,
      "semi_major_axis_km": 6737.896015347069,
      "eccentricity": 0.0001017,
      "inclination_deg": 53.1591,
      "raan_deg": 204.6016,
      "arg_perigee_deg": 60.4008,
      "mean_anomaly_deg": 299.7111,
      "mean_motion_rev_day": 15.69698725
    },
    {
      "epoch": "2026-04-16T12:29:10.510656Z",
      "apogee_km": 360.4463502198332,
      "perigee_km": 359.07720918779614,
      "latitude_deg": -2.1462837920833876e-05,
      "longitude_deg": 167.93069830488426,
      "height_km": 360.685537415003,
      "semi_major_axis_km": 6737.898779703814,
      "eccentricity": 0.0001016,
      "inclination_deg": 53.1589,
      "raan_deg": 199.8913,
      "arg_perigee_deg": 90.8461,
      "mean_anomaly_deg": 269.2673,
      "mean_motion_rev_day": 15.69697759
    },
    {
      "epoch": "2026-04-17T12:56:06.480960Z",
      "apogee_km": 360.44146928897044,
      "perigee_km": 359.03001970645255,
      "latitude_deg": 6.153635990716531e-05,
      "longitude_deg": 155.17367222110354,
      "height_km": 360.53401827412,
      "semi_major_axis_km": 6737.872744497711,
      "eccentricity": 0.00010474,
      "inclination_deg": 53.1591,
      "raan_deg": 194.8715,
      "arg_perigee_deg": 80.5914,
      "mean_anomaly_deg": 279.5223,
      "mean_motion_rev_day": 15.69706857
    },
    {
      "epoch": "2026-04-18T11:51:21.493728Z",
      "apogee_km": 360.4477625546215,
      "perigee_km": 359.0130010743387,
      "latitude_deg": -8.830662402594478e-06,
      "longitude_deg": 165.71204180481212,
      "height_km": 360.52377777636787,
      "semi_major_axis_km": 6737.86738181448,
      "eccentricity": 0.00010647,
      "inclination_deg": 53.1594,
      "raan_deg": 190.1638,
      "arg_perigee_deg": 80.3489,
      "mean_anomaly_deg": 279.7649,
      "mean_motion_rev_day": 15.69708731
    },
    {
      "epoch": "2026-04-19T04:39:51.712992Z",
      "apogee_km": 360.6496215478355,
      "perigee_km": 358.7464526632539,
      "latitude_deg": 3.0286655289435135e-05,
      "longitude_deg": -90.55813912476184,
      "height_km": 360.84953866214124,
      "semi_major_axis_km": 6737.835037105544,
      "eccentricity": 0.00014123,
      "inclination_deg": 53.1599,
      "raan_deg": 186.7098,
      "arg_perigee_deg": 104.4979,
      "mean_anomaly_deg": 255.6196,
      "mean_motion_rev_day": 15.69720034
    },
    {
      "epoch": "2026-04-20T11:13:33.981024Z",
      "apogee_km": 360.17023652506396,
      "perigee_km": 359.2528110700641,
      "latitude_deg": -3.4081570891250995e-05,
      "longitude_deg": 163.4829679628589,
      "height_km": 360.7133383124059,
      "semi_major_axis_km": 6737.848523797564,
      "eccentricity": 6.808e-05,
      "inclination_deg": 53.1569,
      "raan_deg": 180.4322,
      "arg_perigee_deg": 101.0503,
      "mean_anomaly_deg": 259.0591,
      "mean_motion_rev_day": 15.69715321
    },
    {
      "epoch": "2026-04-21T20:50:36.494880Z",
      "apogee_km": 360.31430997533425,
      "perigee_km": 359.1230570904854,
      "latitude_deg": -7.594845662247418e-06,
      "longitude_deg": 10.93929372544395,
      "height_km": 360.2698893133734,
      "semi_major_axis_km": 6737.855683532909,
      "eccentricity": 8.84e-05,
      "inclination_deg": 53.1574,
      "raan_deg": 173.5296,
      "arg_perigee_deg": 52.4868,
      "mean_anomaly_deg": 307.623,
      "mean_motion_rev_day": 15.69712819
    },
    {
      "epoch": "2026-04-22T09:04:05.682720Z",
      "apogee_km": 360.70246321606555,
      "perigee_km": 358.79106035052337,
      "latitude_deg": -2.0551986792946377e-05,
      "longitude_deg": -175.44688683402222,
      "height_km": 360.50643415277983,
      "semi_major_axis_km": 6737.883761783294,
      "eccentricity": 0.00014184,
      "inclination_deg": 53.1604,
      "raan_deg": 171.0171,
      "arg_perigee_deg": 80.7499,
      "mean_anomaly_deg": 279.3679,
      "mean_motion_rev_day": 15.69703007
    },
    {
      "epoch": "2026-04-23T09:31:01.244352Z",
      "apogee_km": 360.60035517191864,
      "perigee_km": 358.8208896148453,
      "latitude_deg": 5.113511130072744e-05,
      "longitude_deg": 171.79728236550756,
      "height_km": 360.53154093952014,
      "semi_major_axis_km": 6737.847622393382,
      "eccentricity": 0.00013205,
      "inclination_deg": 53.1615,
      "raan_deg": 165.9968,
      "arg_perigee_deg": 84.0254,
      "mean_anomaly_deg": 276.0915,
      "mean_motion_rev_day": 15.69715636
    },
    {
      "epoch": "2026-04-24T13:01:20.461152Z",
      "apogee_km": 360.8012290199749,
      "perigee_km": 358.724608265049,
      "latitude_deg": 5.3611604704968555e-06,
      "longitude_deg": 112.43467261252947,
      "height_km": 361.0616667764263,
      "semi_major_axis_km": 6737.899918642512,
      "eccentricity": 0.0001541,
      "inclination_deg": 53.1601,
      "raan_deg": 160.3439,
      "arg_perigee_deg": 111.797,
      "mean_anomaly_deg": 248.3212,
      "mean_motion_rev_day": 15.69697361
    },
    {
      "epoch": "2026-04-25T08:53:12.626592Z",
      "apogee_km": 360.29075088520403,
      "perigee_km": 359.1183664539967,
      "latitude_deg": 5.942841276609424e-06,
      "longitude_deg": 169.57201097971665,
      "height_km": 360.55316975388314,
      "semi_major_axis_km": 6737.8415586696,
      "eccentricity": 8.7e-05,
      "inclination_deg": 53.1596,
      "raan_deg": 156.2644,
      "arg_perigee_deg": 83.6022,
      "mean_anomaly_deg": 276.5095,
      "mean_motion_rev_day": 15.69717755
    },
    {
      "epoch": "2026-04-26T12:23:31.541856Z",
      "apogee_km": 360.39437593095863,
      "perigee_km": 359.0817031157585,
      "latitude_deg": -4.4935912991381286e-06,
      "longitude_deg": 110.21538920204108,
      "height_km": 360.59536599968004,
      "semi_major_axis_km": 6737.875039523358,
      "eccentricity": 9.741e-05,
      "inclination_deg": 53.1593,
      "raan_deg": 150.6162,
      "arg_perigee_deg": 85.0679,
      "mean_anomaly_deg": 275.045,
      "mean_motion_rev_day": 15.69706055
    },
    {
      "epoch": "2026-04-27T18:57:12.849120Z",
      "apogee_km": 360.3829601568341,
      "perigee_km": 359.12432218506456,
      "latitude_deg": 1.0521955012408122e-05,
      "longitude_deg": 4.260672558011424,
      "height_km": 360.6754508553451,
      "semi_major_axis_km": 6737.8906411709495,
      "eccentricity": 9.34e-05,
      "inclination_deg": 53.1585,
      "raan_deg": 144.3387,
      "arg_perigee_deg": 90.7374,
      "mean_anomaly_deg": 269.3751,
      "mean_motion_rev_day": 15.69700603
    },
    {
      "epoch": "2026-04-28T08:42:21.676032Z",
      "apogee_km": 360.19992577933044,
      "perigee_km": 359.27548936945095,
      "latitude_deg": -3.481728657294071e-05,
      "longitude_deg": 154.58396727810404,
      "height_km": 360.6396832062855,
      "semi_major_axis_km": 6737.87470757439,
      "eccentricity": 6.86e-05,
      "inclination_deg": 53.1587,
      "raan_deg": 141.5136,
      "arg_perigee_deg": 88.5012,
      "mean_anomaly_deg": 271.6084,
      "mean_motion_rev_day": 15.69706171
    },
    {
      "epoch": "2026-04-29T07:37:37.367040Z",
      "apogee_km": 360.51577061108674,
      "perigee_km": 359.007828859706,
      "latitude_deg": -2.758173550539447e-06,
      "longitude_deg": 165.11957943583755,
      "height_km": 360.65555360756804,
      "semi_major_axis_km": 6737.898799735396,
      "eccentricity": 0.0001119,
      "inclination_deg": 53.1592,
      "raan_deg": 136.8059,
      "arg_perigee_deg": 88.4961,
      "mean_anomaly_deg": 271.6185,
      "mean_motion_rev_day": 15.69697752
    },
    {
      "epoch": "2026-04-30T08:04:33.771072Z",
      "apogee_km": 360.428299242355,
      "perigee_km": 359.04905609113666,
      "latitude_deg": 1.2368445054779941e-05,
      "longitude_deg": 152.36088912415116,
      "height_km": 360.4685157246477,
      "semi_major_axis_km": 6737.875677666746,
      "eccentricity": 0.00010235,
      "inclination_deg": 53.159,
      "raan_deg": 131.7863,
      "arg_perigee_deg": 74.5371,
      "mean_anomaly_deg": 285.576,
      "mean_motion_rev_day": 15.69705832
    },
    {
      "epoch": "2026-05-02T08:58:27.704928Z",
      "apogee_km": 360.38586466257857,
      "perigee_km": 359.1649549339227,
      "latitude_deg": -7.536307564400402e-05,
      "longitude_deg": 126.83291443764058,
      "height_km": 360.8014265260254,
      "semi_major_axis_km": 6737.91240979825,
      "eccentricity": 9.06e-05,
      "inclination_deg": 53.1592,
      "raan_deg": 121.7413,
      "arg_perigee_deg": 100.5877,
      "mean_anomaly_deg": 259.5242,
      "mean_motion_rev_day": 15.69692996
    }
  ]
}